*******************************************************************************
Ephemeris / WWW_USER Mon Mar 10 14:35:44 2025 Pasadena, USA      / Horizons    
*******************************************************************************
Target body name: 468861 (2013 LU28)              {source: JPL#36}
Center body name: Earth (399)                     {source: DE441}
Center-site name: Mauna Kea
*******************************************************************************
Start time      : A.D. 2019-Jan-22 04:17:00.0000 UT      
Stop  time      : A.D. 2019-Jan-22 16:49:00.0000 UT      
Step-size       : 1 minutes
*******************************************************************************
Target pole/equ : undefined
Target radii    : undefined                                                    
Center geodetic : 204.5278, 19.8260847, 4.21024   {E-lon(deg),Lat(deg),Alt(km)}
Center cylindric: 204.5278, 6006.35451, 2151.0229 {E-lon(deg),Dxy(km),Dz(km)}
Center pole/equ : ITRF93                          {East-longitude positive}
Center radii    : 6378.137, 6378.137, 6356.752 km {Equator_a, b, pole_c}       
Target primary  : Sun
Vis. interferer : MOON (R_eq= 1737.400) km        {source: DE441}
Rel. light bend : Sun                             {source: DE441}
Rel. lght bnd GM: 1.3271E+11 km^3/s^2                                          
Small-body perts: Yes                             {source: SB441-N16}
Atmos refraction: NO (AIRLESS)
RA format       : HMS
Time format     : CAL 
Calendar mode   : Mixed Julian/Gregorian
RTS-only print  : NO       
EOP file        : eop.250307.p250603                                           
EOP coverage    : DATA-BASED 1962-JAN-20 TO 2025-MAR-07. PREDICTS-> 2025-JUN-02
Units conversion: 1 au= 149597870.700 km, c= 299792.458 km/s, 1 day= 86400.0 s 
Table cut-offs 1: Elevation (-90.0deg=NO ),Airmass (>38.000=NO), Daylight (YES)
Table cut-offs 2: Solar elongation (  0.0,180.0=NO ),Local Hour Angle( 0.0=NO )
Table cut-offs 3: RA/DEC angular rate (     0.0=NO )                           
*******************************************************************************
Initial IAU76/J2000 heliocentric ecliptic osculating elements (au, days, deg.):
  EPOCH=  2459491.5 ! 2021-Oct-04.00 (TDB)         Residual RMS= .14077        
   EC= .9545524767334098   QR= 8.741840911970645   TP= 2460480.7801673855      
   OM= 275.9923561772391   W=  152.9171912923278   IN= 125.3473013584344       
  Equivalent ICRF heliocentric cartesian coordinates (au, au/d):
   X=-6.020062670108302E+00  Y=-1.182282064265113E+00  Z= 8.330249486138040E+00
  VX= 2.086988006100027E-03 VY= 7.079392581348984E-03 VZ=-1.092497303529149E-03
Asteroid physical parameters (km, seconds, rotational period in hours):        
   GM= n.a.                RAD= n.a.               ROTPER= n.a.                
   H= 8.24                 G= .150                 B-V= n.a.                   
                           ALBEDO= n.a.            STYP= n.a.                  
*******************************************************************************
 Date__(UT)__HR:MN     R.A._________(ICRF)_________DEC
******************************************************
$$SOE
 2019-Jan-22 14:32  m  15 24 58.008018 +36 42 40.25289
 2019-Jan-22 14:33  m  15 24 58.010507 +36 42 40.42097
 2019-Jan-22 14:34  m  15 24 58.012995 +36 42 40.58904
 2019-Jan-22 14:35  m  15 24 58.015482 +36 42 40.75711
 2019-Jan-22 14:36  m  15 24 58.017969 +36 42 40.92517
 2019-Jan-22 14:37  m  15 24 58.020455 +36 42 41.09324
 2019-Jan-22 14:38  m  15 24 58.022940 +36 42 41.26129
 2019-Jan-22 14:39  m  15 24 58.025424 +36 42 41.42935
 2019-Jan-22 14:40  m  15 24 58.027907 +36 42 41.59740
 2019-Jan-22 14:41  m  15 24 58.030389 +36 42 41.76545
 2019-Jan-22 14:42  m  15 24 58.032871 +36 42 41.93349
 2019-Jan-22 14:43  m  15 24 58.035351 +36 42 42.10153
 2019-Jan-22 14:44  m  15 24 58.037831 +36 42 42.26957
 2019-Jan-22 14:45  m  15 24 58.040310 +36 42 42.43760
 2019-Jan-22 14:46  m  15 24 58.042789 +36 42 42.60563
 2019-Jan-22 14:47  m  15 24 58.045266 +36 42 42.77365
 2019-Jan-22 14:48  m  15 24 58.047742 +36 42 42.94168
 2019-Jan-22 14:49  m  15 24 58.050218 +36 42 43.10969
 2019-Jan-22 14:50  m  15 24 58.052693 +36 42 43.27771
 2019-Jan-22 14:51  m  15 24 58.055167 +36 42 43.44572
 2019-Jan-22 14:52  m  15 24 58.057641 +36 42 43.61372
 2019-Jan-22 14:53  m  15 24 58.060113 +36 42 43.78173
 2019-Jan-22 14:54  m  15 24 58.062585 +36 42 43.94972
 2019-Jan-22 14:55  m  15 24 58.065056 +36 42 44.11772
 2019-Jan-22 14:56  m  15 24 58.067526 +36 42 44.28571
 2019-Jan-22 14:57  m  15 24 58.069995 +36 42 44.45370
 2019-Jan-22 14:58  m  15 24 58.072464 +36 42 44.62168
 2019-Jan-22 14:59  m  15 24 58.074932 +36 42 44.78966
 2019-Jan-22 15:00  m  15 24 58.077399 +36 42 44.95763
 2019-Jan-22 15:01  m  15 24 58.079865 +36 42 45.12560
 2019-Jan-22 15:02  m  15 24 58.082330 +36 42 45.29357
 2019-Jan-22 15:03  m  15 24 58.084795 +36 42 45.46153
 2019-Jan-22 15:04  m  15 24 58.087259 +36 42 45.62949
 2019-Jan-22 15:05  m  15 24 58.089722 +36 42 45.79744
 2019-Jan-22 15:06  m  15 24 58.092185 +36 42 45.96539
 2019-Jan-22 15:07  m  15 24 58.094646 +36 42 46.13334
 2019-Jan-22 15:08  m  15 24 58.097107 +36 42 46.30128
 2019-Jan-22 15:09  m  15 24 58.099567 +36 42 46.46922
 2019-Jan-22 15:10  m  15 24 58.102027 +36 42 46.63715
 2019-Jan-22 15:11  m  15 24 58.104485 +36 42 46.80508
 2019-Jan-22 15:12  m  15 24 58.106943 +36 42 46.97301
 2019-Jan-22 15:13  m  15 24 58.109400 +36 42 47.14093
 2019-Jan-22 15:14  m  15 24 58.111857 +36 42 47.30885
 2019-Jan-22 15:15  m  15 24 58.114312 +36 42 47.47676
 2019-Jan-22 15:16  m  15 24 58.116767 +36 42 47.64467
 2019-Jan-22 15:17  m  15 24 58.119222 +36 42 47.81257
 2019-Jan-22 15:18  m  15 24 58.121675 +36 42 47.98047
 2019-Jan-22 15:19  m  15 24 58.124128 +36 42 48.14836
 2019-Jan-22 15:20  m  15 24 58.126580 +36 42 48.31625
 2019-Jan-22 15:21  m  15 24 58.129032 +36 42 48.48414
 2019-Jan-22 15:22  m  15 24 58.131482 +36 42 48.65202
 2019-Jan-22 15:23  m  15 24 58.133932 +36 42 48.81990
 2019-Jan-22 15:24  m  15 24 58.136381 +36 42 48.98777
 2019-Jan-22 15:25  m  15 24 58.138830 +36 42 49.15564
 2019-Jan-22 15:26  m  15 24 58.141278 +36 42 49.32350
 2019-Jan-22 15:27  m  15 24 58.143725 +36 42 49.49136
 2019-Jan-22 15:28  m  15 24 58.146172 +36 42 49.65922
 2019-Jan-22 15:29  m  15 24 58.148617 +36 42 49.82707
 2019-Jan-22 15:30  m  15 24 58.151063 +36 42 49.99491
 2019-Jan-22 15:31  m  15 24 58.153507 +36 42 50.16275
 2019-Jan-22 15:32  m  15 24 58.155951 +36 42 50.33059
 2019-Jan-22 15:33  m  15 24 58.158394 +36 42 50.49842
 2019-Jan-22 15:34  m  15 24 58.160836 +36 42 50.66625
 2019-Jan-22 15:35  m  15 24 58.163278 +36 42 50.83407
 2019-Jan-22 15:36  m  15 24 58.165719 +36 42 51.00189
 2019-Jan-22 15:37  m  15 24 58.168160 +36 42 51.16970
 2019-Jan-22 15:38  m  15 24 58.170600 +36 42 51.33751
 2019-Jan-22 15:39  m  15 24 58.173039 +36 42 51.50532
 2019-Jan-22 15:40  m  15 24 58.175477 +36 42 51.67312
 2019-Jan-22 15:41  m  15 24 58.177915 +36 42 51.84091
 2019-Jan-22 15:42  m  15 24 58.180353 +36 42 52.00870
 2019-Jan-22 15:43 Am  15 24 58.182789 +36 42 52.17649
 2019-Jan-22 15:44 Am  15 24 58.185225 +36 42 52.34427
 2019-Jan-22 15:45 Am  15 24 58.187661 +36 42 52.51204
 2019-Jan-22 15:46 Am  15 24 58.190095 +36 42 52.67981
 2019-Jan-22 15:47 Am  15 24 58.192530 +36 42 52.84758
 2019-Jan-22 15:48 Am  15 24 58.194963 +36 42 53.01534
 2019-Jan-22 15:49 Am  15 24 58.197396 +36 42 53.18310
 2019-Jan-22 15:50 Am  15 24 58.199828 +36 42 53.35085
 2019-Jan-22 15:51 Am  15 24 58.202260 +36 42 53.51859
 2019-Jan-22 15:52 Am  15 24 58.204691 +36 42 53.68633
 2019-Jan-22 15:53 Am  15 24 58.207122 +36 42 53.85407
 2019-Jan-22 15:54 Am  15 24 58.209552 +36 42 54.02180
 2019-Jan-22 15:55 Am  15 24 58.211981 +36 42 54.18953
 2019-Jan-22 15:56 Am  15 24 58.214410 +36 42 54.35725
 2019-Jan-22 15:57 Am  15 24 58.216838 +36 42 54.52497
 2019-Jan-22 15:58 Am  15 24 58.219265 +36 42 54.69268
 2019-Jan-22 15:59 Am  15 24 58.221692 +36 42 54.86039
 2019-Jan-22 16:00 Am  15 24 58.224119 +36 42 55.02809
 2019-Jan-22 16:01 Am  15 24 58.226545 +36 42 55.19579
 2019-Jan-22 16:02 Am  15 24 58.228970 +36 42 55.36348
 2019-Jan-22 16:03 Am  15 24 58.231395 +36 42 55.53117
 2019-Jan-22 16:04 Am  15 24 58.233819 +36 42 55.69885
 2019-Jan-22 16:05 Am  15 24 58.236243 +36 42 55.86652
 2019-Jan-22 16:06 Am  15 24 58.238666 +36 42 56.03420
 2019-Jan-22 16:07 Am  15 24 58.241088 +36 42 56.20186
 2019-Jan-22 16:08 Am  15 24 58.243510 +36 42 56.36952
 2019-Jan-22 16:09 Am  15 24 58.245932 +36 42 56.53718
 2019-Jan-22 16:10 Nm  15 24 58.248353 +36 42 56.70483
 2019-Jan-22 16:11 Nm  15 24 58.250773 +36 42 56.87248
 2019-Jan-22 16:12 Nm  15 24 58.253193 +36 42 57.04012
 2019-Jan-22 16:13 Nm  15 24 58.255612 +36 42 57.20775
 2019-Jan-22 16:14 Nm  15 24 58.258031 +36 42 57.37539
 2019-Jan-22 16:15 Nm  15 24 58.260450 +36 42 57.54301
 2019-Jan-22 16:16 Nm  15 24 58.262868 +36 42 57.71063
 2019-Jan-22 16:17 Nm  15 24 58.265285 +36 42 57.87825
 2019-Jan-22 16:18 Nm  15 24 58.267702 +36 42 58.04586
 2019-Jan-22 16:19 Nm  15 24 58.270118 +36 42 58.21346
 2019-Jan-22 16:20 Nm  15 24 58.272534 +36 42 58.38106
 2019-Jan-22 16:21 Nm  15 24 58.274949 +36 42 58.54865
 2019-Jan-22 16:22 Nm  15 24 58.277364 +36 42 58.71624
 2019-Jan-22 16:23 Nm  15 24 58.279779 +36 42 58.88383
 2019-Jan-22 16:24 Nm  15 24 58.282193 +36 42 59.05141
 2019-Jan-22 16:25 Nm  15 24 58.284606 +36 42 59.21898
 2019-Jan-22 16:26 Nm  15 24 58.287019 +36 42 59.38655
 2019-Jan-22 16:27 Nm  15 24 58.289431 +36 42 59.55411
 2019-Jan-22 16:28 Nm  15 24 58.291843 +36 42 59.72167
 2019-Jan-22 16:29 Nm  15 24 58.294255 +36 42 59.88922
 2019-Jan-22 16:30 Nm  15 24 58.296666 +36 43 00.05677
 2019-Jan-22 16:31 Nm  15 24 58.299077 +36 43 00.22431
 2019-Jan-22 16:32 Nm  15 24 58.301487 +36 43 00.39184
 2019-Jan-22 16:33 Nm  15 24 58.303897 +36 43 00.55937
 2019-Jan-22 16:34 Nm  15 24 58.306306 +36 43 00.72690
